ONEWEB-0461             
1 51649U 22012AD  25150.20705941  .00000136  00000+0  31677-3 0  9999
2 51649  87.9065  82.1009 0002101  78.1996 281.9371 13.17649991164749
ONEWEB-0463             
1 51650U 22012AE  25150.18849605  .00000138  00000+0  32206-3 0  9995
2 51650  87.9068  82.1668 0001985  77.6389 282.4964 13.17649752164530
ONEWEB-0464             
1 51651U 22012AF  25149.79464166  .00000337  00000+0  92830-3 0  9996
2 51651  87.8819 112.7312 0001867  91.2765 268.8576 13.10375265159112
ONEWEB-0468             
1 51652U 22012AG  25149.95399738  .00000543  00000+0  15189-2 0  9997
2 51652  87.8818 112.6913 0002015  82.9064 277.2292 13.10374310159112
ONEWEB-0473             
1 51653U 22012AH  25149.93904888 -.00000169  00000+0 -52133-3 0  9991
2 51653  87.8819 112.6977 0001945  81.9272 278.2076 13.10375511159110
ONEWEB-0474             
1 51654U 22012AJ  25149.93074362 -.00000506  00000+0 -14868-2 0  9994
2 51654  87.8809 112.6646 0001800  85.5007 274.6326 13.10374809159105
ONEWEB-0475             
1 51655U 22012AK  25149.82062609  .00000075  00000+0  15922-3 0  9996
2 51655  87.9068  82.2198 0001250  73.4339 286.6930 13.17651184164494
ONEWEB-0490             
1 54113U 22138A   25149.34998202  .00000081  00000+0  16934-3 0  9992
2 54113  87.9230  21.2565 0001706  88.2588 271.8740 13.19726878127077
